ORBCOMM FM05 [-]        
1 25117U 97084F   24079.24974023  .00002640  00000+0  83459-3 0  9990
2 25117  45.0169  26.1985 0001753  61.5560 298.5467 14.42334587374841
ORBCOMM FM06 [+]        
1 25118U 97084G   24079.23636926  .00002750  00000+0  86735-3 0  9999
2 25118  45.0162  26.4417 0000904  51.3872  88.7577 14.42340344375758
ORBCOMM FM07 [-]        
1 25119U 97084H   24079.12864458  .00002085  00000+0  66933-3 0  9990
2 25119  45.0158  27.4635 0002578  55.8630 304.2465 14.42266280375733
ORBCOMM FM03 [-]        
1 25158U 98007B   24080.03732075  .00001404  00000+0  56456-3 0  9993
2 25158 107.9795 284.3696 0048594 319.8863  39.8692 14.31942432359116
ORBCOMM FM04 [+]        
1 25159U 98007C   24080.03520611  .00001424  00000+0  57055-3 0  9993
2 25159 107.9778 287.2689 0044193 317.6498  42.1233 14.32198598359253
ORBCOMM FM17 [-]        
1 25413U 98046A   24079.48447564  .00001550  00000+0  61328-3 0  9999
2 25413  44.9931 239.9089 0002316 119.4795 240.6282 14.32913499337906
ORBCOMM FM18 [-]        
1 25414U 98046B   24079.36884399  .00001741  00000+0  64687-3 0  9991
2 25414  44.9932 168.6384 0004651 176.2919 183.7963 14.35602121338822
ORBCOMM FM19 [+]        
1 25415U 98046C   24079.35040399  .00001738  00000+0  64801-3 0  9999
2 25415  44.9941 170.0673 0003371 176.6523 294.3202 14.35437275338780
